EUTELSAT QUANTUM        
1 49056U 21069B   25253.10878061  .00000124  00000+0  00000+0 0  9995
2 49056   0.0454 323.4125 0002289 233.7643 239.0830  1.00270483 15116
EUTELSAT KONNECT VHTS   
1 53765U 22110A   25253.30389097  .00000014  00000+0  00000+0 0  9991
2 53765   0.0542 104.4687 0002656  53.6745 303.5250  1.00269208  4020
EUTELSAT HOTBIRD 13F    
1 54048U 22134A   25253.30588432  .00000085  00000+0  00000+0 0  9994
2 54048   0.0606 290.0698 0001949  70.0994 112.5397  1.00270754 10578
EUTELSAT HOTBIRD 13G    
1 54225U 22146A   25253.30588432  .00000085  00000+0  00000+0 0  9994
2 54225   0.0520 232.7270 0002061 306.4844 293.4944  1.00271303  4655
EUTELSAT 10B            
1 54259U 22157A   25253.30527765  .00000066  00000+0  00000+0 0  9994
2 54259   0.0558 102.8996 0001820   1.1005   5.4853  1.00268047 10215
EUTELSAT 36D            
1 59346U 24059A   25253.23906403  .00000154  00000+0  00000+0 0  9999
2 59346   0.0089 174.4249 0000283  32.9471 264.0701  1.00270992  5348
